SENTINEL-6              
1 46984U 20086A   23214.27644525 -.00000072  00000+0 -47432-4 0  9998
2 46984  66.0407 155.7282 0008023 268.9653  91.0442 12.80930773125983
